[{"OBJECT_NAME":"STARLINK-33951","OBJECT_ID":"2025-091AD","EPOCH":"2026-03-09T22:37:33.453120","MEAN_MOTION":15.2762427,"ECCENTRICITY":0.00021217,"INCLINATION":43.0055,"RA_OF_ASC_NODE":50.8562,"ARG_OF_PERICENTER":279.9149,"MEAN_ANOMALY":80.1463,"EPHEMERIS_TYPE":0,"CLASSIFICATION_TYPE":"U","NORAD_CAT_ID":63803,"ELEMENT_SET_NO":999,"REV_AT_EPOCH":4899,"BSTAR":0.0013194415,"MEAN_MOTION_DOT":0.00036275,"MEAN_MOTION_DDOT":0},{"OBJECT_NAME":"COSMOS 2588","OBJECT_ID":"2025-109A","EPOCH":"2026-03-09T19:28:59.107008","MEAN_MOTION":15.29122656,"ECCENTRICITY":0.0005019,"INCLINATION":72.9704,"RA_OF_ASC_NODE":73.5401,"ARG_OF_PERICENTER":308.678,"MEAN_ANOMALY":51.3966,"EPHEMERIS_TYPE":0,"CLASSIFICATION_TYPE":"U","NORAD_CAT_ID":64095,"ELEMENT_SET_NO":999,"REV_AT_EPOCH":4442,"BSTAR":0.00032611,"MEAN_MOTION_DOT":9.169e-5,"MEAN_MOTION_DDOT":0}]
